NORAD_CAT_ID,OBJECT_NAME,OBJECT_TYPE,EPOCH,MEAN_MOTION,ECCENTRICITY,INCLINATION,RA_OF_ASC_NODE,ARG_OF_PERICENTER,MEAN_ANOMALY,BSTAR,MEAN_MOTION_DOT,MEAN_MOTION_DDOT,TLE_LINE0,TLE_LINE1,TLE_LINE2,SEMIMAJOR_AXIS,PERIOD,APOGEE,PERIGEE,DECAYED
53166.0,STARLINK-4110,PAYLOAD,2023-10-08 02:49:27,15.08864815,0.0001718,53.2163,170.6282,88.9853,271.1336,0.00097915,0.0001534,0.0,0 STARLINK-4110,1 53166U 22083AL  23281.11767429  .00015340  00000-0  97915-3 0  9996,2 53166  53.2163 170.6282 0001718  88.9853 271.1336 15.08864815 68606,6917.805,95.436,540.858,538.481,0.0
53166.0,STARLINK-4110,PAYLOAD,2023-10-08 09:10:59,15.08859261,0.0001841,53.216,169.4357,66.6401,293.4785,0.00049471,7.598e-05,0.0,0 STARLINK-4110,1 53166U 22083AL  23281.38263411  .00007598  00000-0  49471-3 0  9997,2 53166  53.2160 169.4357 0001841  66.6401 293.4785 15.08859261 68649,6917.822,95.436,540.96,538.413,0.0
53166.0,STARLINK-4110,PAYLOAD,2023-10-08 17:07:55,15.0885026,0.0001539,53.2164,167.9543,96.4449,263.6718,0.00026154,3.878e-05,0.0,0 STARLINK-4110,1 53166U 22083AL  23281.71383273  .00003878  00000-0  26154-3 0  9993,2 53166  53.2164 167.9543 0001539  96.4449 263.6718 15.08850260 68690,6917.849,95.437,540.779,538.649,0.0
53166.0,STARLINK-4110,PAYLOAD,2023-10-08 20:18:41,15.08854711,0.000157,53.2166,167.3598,97.3924,262.7246,0.00050082,7.695e-05,0.0,0 STARLINK-4110,1 53166U 22083AL  23281.84631159  .00007695  00000-0  50082-3 0  9994,2 53166  53.2166 167.3598 0001570  97.3924 262.7246 15.08854711 68083,6917.835,95.437,540.787,538.614,0.0
53166.0,STARLINK-4110,PAYLOAD,2023-10-09 09:01:46,15.08841288,0.0001201,53.2162,164.9786,91.3557,268.7573,0.00011479,1.54e-05,0.0,0 STARLINK-4110,1 53166U 22083AL  23282.37623255  .00001540  00000-0  11479-3 0  9991,2 53166  53.2162 164.9786 0001201  91.3557 268.7573 15.08841288 68790,6917.876,95.437,540.572,538.911,0.0
53166.0,STARLINK-4110,PAYLOAD,2023-10-09 21:44:51,15.08837066,0.0001225,53.2161,162.6013,108.2129,251.8996,0.00010396,1.367e-05,0.0,0 STARLINK-4110,1 53166U 22083AL  23282.90615555  .00001367  00000-0  10396-3 0  9998,2 53166  53.2161 162.6013 0001225 108.2129 251.8996 15.08837066 68247,6917.889,95.438,540.602,538.907,0.0
53166.0,STARLINK-4110,PAYLOAD,2023-10-10 08:52:34,15.08842185,0.0001449,53.2156,160.5193,96.3497,263.7661,0.00072523,0.00011274,0.0,0 STARLINK-4110,1 53166U 22083AL  23283.36983821  .00011274  00000-0  72523-3 0  9991,2 53166  53.2156 160.5193 0001449  96.3497 263.7661 15.08842185 68317,6917.874,95.437,540.741,538.736,0.0
53166.0,STARLINK-4110,PAYLOAD,2023-10-10 21:35:38,15.08849117,0.0001113,53.2151,158.141,112.4234,247.6876,0.00068356,0.0001061,0.0,0 STARLINK-4110,1 53166U 22083AL  23283.89975687  .00010610  00000-0  68356-3 0  9992,2 53166  53.2151 158.1410 0001113 112.4234 247.6876 15.08849117 68393,6917.853,95.437,540.487,538.948,0.0
53166.0,STARLINK-4110,PAYLOAD,2023-10-11 00:46:25,15.0884985,0.000127,53.2156,157.5465,98.1659,261.9477,0.00070218,0.00010908,0.0,0 STARLINK-4110,1 53166U 22083AL  23284.03223726  .00010908  00000-0  70218-3 0  9999,2 53166  53.2156 157.5465 0001270  98.1659 261.9477 15.08849850 69049,6917.85,95.437,540.594,538.837,0.0
53166.0,STARLINK-4110,PAYLOAD,2023-10-11 10:18:44,15.08841093,0.0001001,53.2141,155.7627,111.3953,248.7146,0.00031579,4.742e-05,0.0,0 STARLINK-4110,1 53166U 22083AL  23284.42967755  .00004742  00000-0  31579-3 0  9995,2 53166  53.2141 155.7627 0001001 111.3953 248.7146 15.08841093 69104,6917.877,95.437,540.435,539.05,0.0
53166.0,STARLINK-4110,PAYLOAD,2023-10-12 10:09:31,15.08839424,9.39e-05,53.2136,151.3009,97.9323,262.1776,0.00017961,2.572e-05,0.0,0 STARLINK-4110,1 53166U 22083AL  23285.42328000  .00002572  00000-0  17961-3 0  9998,2 53166  53.2136 151.3009 0000939  97.9323 262.1776 15.08839424 69253,6917.882,95.438,540.397,539.098,0.0
53166.0,STARLINK-4110,PAYLOAD,2023-10-12 21:17:13,15.08844051,0.0001028,53.2142,149.2208,83.9994,276.1115,0.00024808,3.663e-05,0.0,0 STARLINK-4110,1 53166U 22083AL  23285.88696017  .00003663  00000-0  24808-3 0  9994,2 53166  53.2142 149.2208 0001028  83.9994 276.1115 15.08844051 68697,6917.868,95.437,540.444,539.022,0.0
53166.0,STARLINK-4110,PAYLOAD,2023-10-13 08:24:55,15.08848377,0.0001063,53.2141,147.1396,79.8877,280.2235,0.00036725,5.563e-05,0.0,0 STARLINK-4110,1 53166U 22083AL  23286.35063909  .00005563  00000-0  36725-3 0  9997,2 53166  53.2141 147.1396 0001063  79.8877 280.2235 15.08848377 68766,6917.855,95.437,540.455,538.984,0.0
53166.0,STARLINK-4110,PAYLOAD,2023-10-13 17:57:14,15.08844907,0.0001065,53.2142,145.3557,78.3623,281.7489,0.00023609,3.472e-05,0.0,0 STARLINK-4110,1 53166U 22083AL  23286.74807994  .00003472  00000-0  23609-3 0  9994,2 53166  53.2142 145.3557 0001065  78.3623 281.7489 15.08844907 69450,6917.865,95.437,540.467,538.994,0.0
53166.0,STARLINK-4110,PAYLOAD,2023-10-13 21:08:00,15.08851093,0.000105,53.2141,144.7589,99.7466,260.3644,0.00036677,5.556e-05,0.0,0 STARLINK-4110,1 53166U 22083AL  23286.88055661  .00005556  00000-0  36677-3 0  9999,2 53166  53.2141 144.7589 0001050  99.7466 260.3644 15.08851093 68845,6917.846,95.437,540.438,538.985,0.0
53166.0,STARLINK-4110,PAYLOAD,2023-10-14 08:15:42,15.08840484,0.0001148,53.2153,142.6768,94.1871,265.9252,8.7089e-05,1.098e-05,0.0,0 STARLINK-4110,1 53166U 22083AL  23287.34424106  .00001098  00000-0  87089-4 0  9996,2 53166  53.2153 142.6768 0001148  94.1871 265.9252 15.08840484 69547,6917.879,95.438,540.538,538.95,0.0
53166.0,STARLINK-4110,PAYLOAD,2023-10-14 14:37:15,15.08827958,0.0001702,53.2141,141.4896,80.7583,279.3602,-9.3001e-05,-1.767e-05,0.0,0 STARLINK-4110,1 53166U 22083AL  23287.60920957 -.00001767  00000-0 -93001-4 0  9996,2 53166  53.2141 141.4896 0001702  80.7583 279.3602 15.08827958 68953,6917.917,95.438,540.96,538.605,0.0
53166.0,STARLINK-4110,PAYLOAD,2023-10-14 20:58:48,15.08820703,0.0001138,53.2142,140.2993,88.1468,271.9655,-0.00018892,-3.292e-05,0.0,0 STARLINK-4110,1 53166U 22083AL  23287.87417350 -.00003292  00000-0 -18892-3 0  9992,2 53166  53.2142 140.2993 0001138  88.1468 271.9655 15.08820703 69628,6917.939,95.439,540.592,539.017,0.0
53166.0,STARLINK-4110,PAYLOAD,2023-10-15 00:09:34,15.08822516,0.0001225,53.2146,139.7039,88.5382,271.5751,-0.00016118,-2.851e-05,0.0,0 STARLINK-4110,1 53166U 22083AL  23288.00665476 -.00002851  00000-0 -16118-3 0  9991,2 53166  53.2146 139.7039 0001225  88.5382 271.5751 15.08822516 69012,6917.934,95.439,540.646,538.951,0.0
53166.0,STARLINK-4110,PAYLOAD,2023-10-15 20:49:36,15.08840092,0.0001163,53.2144,135.8383,86.4074,273.7051,0.00089612,0.00014003,0.0,0 STARLINK-4110,1 53166U 22083AL  23288.86778092  .00014003  00000-0  89612-3 0  9993,2 53166  53.2144 135.8383 0001163  86.4074 273.7051 15.08840092 69774,6917.88,95.438,540.55,538.941,0.0
53166.0,STARLINK-4110,PAYLOAD,2023-10-16 12:43:26,15.08867982,0.0001146,53.2143,132.8641,84.1931,275.9191,0.0010453,0.000164,0.0,0 STARLINK-4110,1 53166U 22083AL  23289.53017226  .00016400  00000-0  10453-2 0  9992,2 53166  53.2143 132.8641 0001146  84.1931 275.9191 15.08867982 69243,6917.795,95.436,540.453,538.867,0.0
53166.0,STARLINK-4110,PAYLOAD,2023-10-16 17:29:35,15.08875269,0.0001128,53.2142,131.9719,83.7266,276.3855,0.0010671,0.00016752,0.0,0 STARLINK-4110,1 53166U 22083AL  23289.72888783  .00016752  00000-0  10671-2 0  9999,2 53166  53.2142 131.9719 0001128  83.7266 276.3855 15.08875269 69906,6917.773,95.435,540.418,538.857,0.0
53166.0,STARLINK-4110,PAYLOAD,2023-10-17 14:09:36,15.08863099,9.86e-05,53.2149,128.1067,70.8549,289.2549,0.00043413,6.632e-05,0.0,0 STARLINK-4110,1 53166U 22083AL  23290.59000153  .00006632  00000-0  43413-3 0  9990,2 53166  53.2149 128.1067 0000986  70.8549 289.2549 15.08863099 69405,6917.81,95.436,540.357,538.993,0.0
53166.0,STARLINK-4110,PAYLOAD,2023-10-17 20:31:08,15.08849964,0.0001439,53.2141,126.9157,79.84,280.2754,7.6747e-05,9.34e-06,0.0,0 STARLINK-4110,1 53166U 22083AL  23290.85496186  .00000934  00000-0  76747-4 0  9990,2 53166  53.2141 126.9157 0001439  79.8400 280.2754 15.08849964 70071,6917.85,95.437,540.71,538.719,0.0
53166.0,STARLINK-4110,PAYLOAD,2023-10-18 15:35:46,15.0884022,0.000132,53.214,123.3473,86.8369,273.2774,8.3595e-06,-1.55e-06,0.0,0 STARLINK-4110,1 53166U 22083AL  23291.64984275 -.00000155  00000-0  83595-5 0  9995,2 53166  53.2140 123.3473 0001320  86.8369 273.2774 15.08840220 70196,6917.88,95.438,540.658,538.832,0.0
53166.0,STARLINK-4110,PAYLOAD,2023-10-19 12:15:47,15.08849116,0.0001663,53.213,119.4823,85.7425,274.3757,0.00030117,4.51e-05,0.0,0 STARLINK-4110,1 53166U 22083AL  23292.51096139  .00004510  00000-0  30117-3 0  9993,2 53166  53.2130 119.4823 0001663  85.7425 274.3757 15.08849116 69690,6917.853,95.437,540.868,538.567,0.0
53166.0,STARLINK-4110,PAYLOAD,2023-10-19 18:37:19,15.08847757,0.0001331,53.2137,118.2933,84.8508,275.2636,0.00023123,3.395e-05,0.0,0 STARLINK-4110,1 53166U 22083AL  23292.77592038  .00003395  00000-0  23123-3 0  9999,2 53166  53.2137 118.2933 0001331  84.8508 275.2636 15.08847757 70361,6917.857,95.437,540.642,538.801,0.0
53166.0,STARLINK-4110,PAYLOAD,2023-10-20 12:06:34,15.08839478,0.0001236,53.2138,115.0228,82.7523,277.361,8.1598e-05,1.011e-05,0.0,0 STARLINK-4110,1 53166U 22083AL  23293.50456365  .00001011  00000-0  81598-4 0  9997,2 53166  53.2138 115.0228 0001236  82.7523 277.3610 15.08839478 70470,6917.882,95.438,540.602,538.892,0.0
53166.0,STARLINK-4110,PAYLOAD,2023-10-20 15:17:20,15.08837205,0.0001212,53.2142,114.4278,82.662,277.4509,4.137e-05,3.71e-06,0.0,0 STARLINK-4110,1 53166U 22083AL  23293.63704479  .00000371  00000-0  41370-4 0  9995,2 53166  53.2142 114.4278 0001212  82.6620 277.4509 15.08837205 69869,6917.889,95.438,540.592,538.915,0.0
53166.0,STARLINK-4110,PAYLOAD,2023-10-21 11:57:21,15.08838819,0.0001183,53.2147,110.5621,81.623,278.4896,8.0734e-05,9.97e-06,0.0,0 STARLINK-4110,1 53166U 22083AL  23294.49816634  .00000997  00000-0  80734-4 0  9998,2 53166  53.2147 110.5621 0001183  81.6230 278.4896 15.08838819 69992,6917.884,95.438,540.567,538.931,0.0
